{
  "norad_id": 60051,
  "name": "STARLINK-31811",
  "history": [
    {
      "epoch": "2026-03-28T21:42:21.627936Z",
      "apogee_km": 475.5781729032851,
      "perigee_km": 474.8699465713735,
      "latitude_deg": -8.30318798318312e-06,
      "longitude_deg": -162.82249257655968,
      "height_km": 476.06383219647995,
      "semi_major_axis_km": 6853.361059737329,
      "eccentricity": 5.167e-05,
      "inclination_deg": 53.1626,
      "raan_deg": 349.0858,
      "arg_perigee_deg": 80.3128,
      "mean_anomaly_deg": 279.7931,
      "mean_motion_rev_day": 15.30196989
    },
    {
      "epoch": "2026-03-29T00:50:27.480192Z",
      "apogee_km": 475.87461202634495,
      "perigee_km": 474.5107994149075,
      "latitude_deg": 5.08996765071466e-07,
      "longitude_deg": 149.41638137922664,
      "height_km": 475.9723765407747,
      "semi_major_axis_km": 6853.329705720626,
      "eccentricity": 9.95e-05,
      "inclination_deg": 53.1626,
      "raan_deg": 348.4778,
      "arg_perigee_deg": 79.9429,
      "mean_anomaly_deg": 280.1684,
      "mean_motion_rev_day": 15.3020749
    }
  ]
}